SCD 1                   
1 22490U 93009B   26157.07324330  .00000426  00000+0  65737-4 0  9994
2 22490  24.9698 276.2004 0042045  20.6716 140.7805 14.46115080759506
TECHSAT 1B (GO-32)      
1 25397U 98043D   26156.89574537  .00000075  00000+0  52590-4 0  9994
2 25397  99.0064 149.3697 0000431 197.7842 162.3321 14.24426202449722
SCD 2                   
1 25504U 98060A   26156.65541736  .00000397  00000+0  60038-4 0  9995
2 25504  24.9936 143.2746 0016732   2.2603 159.4023 14.45521147458656
DLR-TUBSAT              
1 25757U 99029B   26157.20209540  .00000124  00000+0  42339-4 0  9999
2 25757  98.6693 152.3447 0014730  27.9715 332.2268 14.52424012431651
TERRA                   
1 25994U 99068A   26156.93524367  .00000443  00000+0  99242-4 0  9990
2 25994  97.9461 206.9271 0000845 249.6338 234.0500 14.61094220407965
MAROC-TUBSAT            
1 27004U 01056D   26156.46417400 -.00000029  00000+0  20237-4 0  9990
2 27004  99.8078 333.1031 0019972 170.8138 244.2660 13.70261918224589
AQUA                    
1 27424U 02022A   26157.18580729  .00000939  00000+0  19658-3 0  9998
2 27424  98.4272 126.2494 0001533  55.4323  71.3019 14.62141548281665
SHIYAN-1 (SY-1)         
1 28220U 04012A   26156.63488424  .00014806  00000+0  45987-3 0  9994
2 28220  97.8687 233.9557 0006516  69.5514 290.6426 15.33455796209326
AURA                    
1 28376U 04026A   26157.16756680  .00000940  00000+0  20008-3 0  9993
2 28376  98.3412 113.5302 0001354  70.2809 289.8537 14.61312591164601
IRS-P5 (CARTOSAT-1)     
1 28649U 05017A   26156.33418728  .00001507  00000+0  15768-3 0  9990
2 28649  97.5313 179.9363 0002655  94.7373 265.4149 14.91016980142050
SINAH 1                 
1 28893U 05043D   26157.18819849  .00000388  00000+0  83156-4 0  9996
2 28893  98.2847 291.4465 0013426 314.3761  45.6340 14.64150367 98918
RESURS-DK 1             
1 29228U 06021A   26156.86373247  .00002717  00000+0  15888-3 0  9991
2 29228  69.9335   8.8639 0006207 301.2031  58.8526 15.13165500100865
ARIRANG-2 (KOMPSAT-2)   
1 29268U 06031A   26157.30591525  .00000263  00000+0  57909-4 0  9992
2 29268  97.8305 342.2789 0015819 105.8548  18.5859 14.64652579 59886
LAPAN-TUBSAT            
1 29709U 07001A   26157.27821014  .00000545  00000+0  69082-4 0  9993
2 29709  98.1343 156.2566 0011087 216.8267 143.2187 14.85938304 49539
HAIYANG-1B              
1 31113U 07010A   26156.88764528  .00000109  00000+0  57411-4 0  9996
2 31113  98.3490 139.1712 0012426 231.8236 128.1829 14.31024085999015
COSMO-SKYMED 1          
1 31598U 07023A   26157.30720819  .00002362  00000+0  21017-3 0  9995
2 31598  97.8861 349.0725 0001350  80.7450 279.3924 14.97052753 28166
TERRASAR-X              
1 31698U 07026A   26155.67675039  .00000882  00000+0  45172-4 0  9994
2 31698  97.4453 163.5606 0001619  90.1175 270.0246 15.19148915 51324
WORLDVIEW-1 (WV-1)      
1 32060U 07041A   26157.06591990  .00007858  00000+0  32585-3 0  9996
2 32060  97.3863 276.9716 0003191  50.7583 309.3937 15.24142101 41188
YAOGAN-3                
1 32289U 07055A   26157.32083950  .00002506  00000+0  26084-3 0  9997
2 32289  97.8162 187.3068 0001991  86.8097 273.3349 14.90741313  4255
COSMO-SKYMED 2          
1 32376U 07059A   26157.29183075  .00000494  00000+0  68572-4 0  9996
2 32376  97.8885 341.0480 0001438  87.7342 272.4035 14.82162786   395
RADARSAT-2              
1 32382U 07061A   26157.33227111  .00000107  00000+0  58258-4 0  9992
2 32382  98.5779 164.4201 0001310  80.2388 279.8943 14.29982998964403
CARTOSAT-2A             
1 32783U 08021A   26157.29111946  .00000795  00000+0  11366-3 0  9998
2 32783  97.7633 206.3711 0012522 140.9367 219.2751 14.79221933977193
HUANJING 1A (HJ-1A)     
1 33320U 08041A   26157.31038584  .00001506  00000+0  18674-3 0  9997
2 33320  97.6683 143.5703 0018949 169.3945 190.7674 14.83961322956792
HUANJING 1B (HJ-1B)     
1 33321U 08041B   26157.27454839  .00001567  00000+0  19576-3 0  9997
2 33321  97.6520 146.7406 0035066 217.5208 142.3558 14.83300654956794
GEOEYE 1                
1 33331U 08042A   26156.94854777  .00000578  00000+0  11751-3 0  9995
2 33331  98.1236 231.0220 0005573  96.4125 263.7713 14.64715345948506
THEOS                   
1 33396U 08049A   26157.33002856  .00000009  00000+0  24249-4 0  9996
2 33396  98.5570 214.9657 0001303  79.7270 280.4054 14.20131867916421
COSMO-SKYMED 3          
1 33412U 08054A   26157.25321356  .00002415  00000+0  16590-3 0  9993
2 33412  97.8294  15.6421 0014268 308.4617  51.5329 15.06880333955295
YAOGAN-4                
1 33446U 08061A   26157.10309785  .00001198  00000+0  15313-3 0  9993
2 33446  97.9307  90.6957 0015693 105.1381 255.1570 14.83179408944025
GOSAT (IBUKI)           
1 33492U 09002A   26157.02466846  .00000037  00000+0  14948-4 0  9998
2 33492  98.0883 268.2462 0001554  92.4840 267.6543 14.67538941929822
DEIMOS-1                
1 35681U 09041A   26157.26618563  .00000476  00000+0  77453-4 0  9991
2 35681  97.7398 314.9678 0000910 137.2147 222.9134 14.75225216905272
