OBJECT_NAME,OBJECT_ID,EPOCH,MEAN_MOTION,ECCENTRICITY,INCLINATION,RA_OF_ASC_NODE,ARG_OF_PERICENTER,MEAN_ANOMALY,EPHEMERIS_TYPE,CLASSIFICATION_TYPE,NORAD_CAT_ID,ELEMENT_SET_NO,REV_AT_EPOCH,BSTAR,MEAN_MOTION_DOT,MEAN_MOTION_DDOT
SCD 1,1993-009B,2026-06-06T01:45:28.221120,14.46115080,.00420455,24.9698,276.2004,20.6716,140.7805,0,U,22490,999,75950,.65736982E-4,.426E-5,0
TECHSAT 1B (GO-32),1998-043D,2026-06-05T21:29:52.399968,14.24426202,.00004311,99.0064,149.3697,197.7842,162.3321,0,U,25397,999,44972,.52590278E-4,.75E-6,0
SCD 2,1998-060A,2026-06-05T15:43:48.059904,14.45521147,.00167326,24.9936,143.2746,2.2603,159.4023,0,U,25504,999,45865,.60038124E-4,.397E-5,0
DLR-TUBSAT,1999-029B,2026-06-06T04:51:01.042560,14.52424012,.00147306,98.6693,152.3447,27.9715,332.2268,0,U,25757,999,43165,.42338866E-4,.124E-5,0
TERRA,1999-068A,2026-06-05T22:26:45.053088,14.61094220,.00008454,97.9461,206.9271,249.6338,234.0500,0,U,25994,999,40796,.99242439E-4,.443E-5,0
MAROC-TUBSAT,2001-056D,2026-06-05T11:08:24.633600,13.70261918,.00199724,99.8078,333.1031,170.8138,244.2660,0,U,27004,999,22458,.20236643E-4,-.29E-6,0
AQUA,2002-022A,2026-06-06T04:27:33.749856,14.62141548,.00015333,98.4272,126.2494,55.4323,71.3019,0,U,27424,999,28166,.19657921E-3,.939E-5,0
SHIYAN-1 (SY-1),2004-012A,2026-06-05T15:14:13.998336,15.33455796,.0006516,97.8687,233.9557,69.5514,290.6426,0,U,28220,999,20932,.459873E-3,.14806E-3,0
AURA,2004-026A,2026-06-06T04:01:17.771520,14.61312591,.00013547,98.3412,113.5302,70.2809,289.8537,0,U,28376,999,16460,.20007774E-3,.94E-5,0
IRS-P5 (CARTOSAT-1),2005-017A,2026-06-05T08:01:13.780992,14.91016980,.00026552,97.5313,179.9363,94.7373,265.4149,0,U,28649,999,14205,.15767746E-3,.1507E-4,0
SINAH 1,2005-043D,2026-06-06T04:31:00.349536,14.64150367,.00134261,98.2847,291.4465,314.3761,45.6340,0,U,28893,999,9891,.8315635E-4,.388E-5,0
RESURS-DK 1,2006-021A,2026-06-05T20:43:46.485408,15.13165500,.00062079,69.9335,8.8639,301.2031,58.8526,0,U,29228,999,10086,.15887853E-3,.2717E-4,0
ARIRANG-2 (KOMPSAT-2),2006-031A,2026-06-06T07:20:31.077600,14.64652579,.0015819,97.8305,342.2789,105.8548,18.5859,0,U,29268,999,5988,.5790939E-4,.263E-5,0
LAPAN-TUBSAT,2007-001A,2026-06-06T06:40:37.356096,14.85938304,.00110872,98.1343,156.2566,216.8267,143.2187,0,U,29709,999,4953,.69082424E-4,.545E-5,0
HAIYANG-1B,2007-010A,2026-06-05T21:18:12.552192,14.31024085,.00124263,98.3490,139.1712,231.8236,128.1829,0,U,31113,999,99901,.5741116E-4,.109E-5,0
COSMO-SKYMED 1,2007-023A,2026-06-06T07:22:22.787616,14.97052753,.00013503,97.8861,349.0725,80.7450,279.3924,0,U,31598,999,2816,.2101705E-3,.2362E-4,0
TERRASAR-X,2007-026A,2026-06-04T16:14:31.233696,15.19148915,.00016197,97.4453,163.5606,90.1175,270.0246,0,U,31698,999,5132,.4517233E-4,.882E-5,0
WORLDVIEW-1 (WV-1),2007-041A,2026-06-06T01:34:55.479360,15.24142101,.00031918,97.3863,276.9716,50.7583,309.3937,0,U,32060,999,4118,.3258456E-3,.7858E-4,0
YAOGAN-3,2007-055A,2026-06-06T07:42:00.532800,14.90741313,.00019919,97.8162,187.3068,86.8097,273.3349,0,U,32289,999,425,.26083765E-3,.2506E-4,0
COSMO-SKYMED 2,2007-059A,2026-06-06T07:00:14.176800,14.82162786,.00014387,97.8885,341.0480,87.7342,272.4035,0,U,32376,999,39,.68571546E-4,.494E-5,0
RADARSAT-2,2007-061A,2026-06-06T07:58:28.223904,14.29982998,.00013101,98.5779,164.4201,80.2388,279.8943,0,U,32382,999,96440,.58258485E-4,.107E-5,0
CARTOSAT-2A,2008-021A,2026-06-06T06:59:12.721344,14.79221933,.00125227,97.7633,206.3711,140.9367,219.2751,0,U,32783,999,97719,.11366112E-3,.795E-5,0
HUANJING 1A (HJ-1A),2008-041A,2026-06-06T07:26:57.336576,14.83961322,.0018949,97.6683,143.5703,169.3945,190.7674,0,U,33320,999,95679,.18673734E-3,.1506E-4,0
HUANJING 1B (HJ-1B),2008-041B,2026-06-06T06:35:20.980896,14.83300654,.00350666,97.6520,146.7406,217.5208,142.3558,0,U,33321,999,95679,.19575589E-3,.1567E-4,0
GEOEYE 1,2008-042A,2026-06-05T22:45:54.527328,14.64715345,.00055739,98.1236,231.0220,96.4125,263.7713,0,U,33331,999,94850,.11751152E-3,.578E-5,0
THEOS,2008-049A,2026-06-06T07:55:14.467584,14.20131867,.00013031,98.5570,214.9657,79.7270,280.4054,0,U,33396,999,91642,.24248965E-4,.9E-7,0
COSMO-SKYMED 3,2008-054A,2026-06-06T06:04:37.651584,15.06880333,.00142681,97.8294,15.6421,308.4617,51.5329,0,U,33412,999,95529,.16590175E-3,.2415E-4,0
YAOGAN-4,2008-061A,2026-06-06T02:28:27.654240,14.83179408,.00156937,97.9307,90.6957,105.1381,255.1570,0,U,33446,999,94402,.15312713E-3,.1198E-4,0
GOSAT (IBUKI),2009-002A,2026-06-06T00:35:31.354944,14.67538941,.00015543,98.0883,268.2462,92.4840,267.6543,0,U,33492,999,92982,.14947856E-4,.37E-6,0
DEIMOS-1,2009-041A,2026-06-06T06:23:18.438432,14.75225216,.00009107,97.7398,314.9678,137.2147,222.9134,0,U,35681,999,90527,.77452748E-4,.476E-5,0
